1 44738U 19074AB  22365.43650429  .00008231  00000-0  57058-3 0  9990
2 44738  53.0531  33.1609 0002300  43.2779 316.8390 15.06415179173150
1 44738U 19074AB  22365.50285517  .00005721  00000-0  40259-3 0  9996
2 44738  53.0544  32.8643 0002375  43.6412 316.4765 15.06405501172999
1 44738U 19074AB  22365.76823837  .00001160  00000-0  96751-4 0  9999
2 44738  53.0550  31.6726 0002382  44.3555 315.7624 15.06408648173036
1 44738U 19074AB  23001.09997343 -.00001104  00000-0 -55193-4 0  9992
2 44738  53.0557  30.1833 0002004  52.6935 307.4236 15.06400705173258
1 44738U 19074AB  23001.36536578 -.00004207  00000-0 -26374-3 0  9996
2 44738  53.0545  28.9923 0002116  30.4407 329.6705 15.06389032173124
1 44738U 19074AB  23001.36536578 -.00004207  00000-0 -26374-3 0  9996
2 44738  53.0545  28.9923 0002116  30.4407 329.6705 15.06389032173292
1 44738U 19074AB  23001.76345340 -.00004856  00000-0 -30746-3 0  9993
2 44738  53.0532  27.2052 0002156  31.6196 328.4922 15.06376954173180
1 44738U 19074AB  23002.09519690 -.00004815  00000-0 -30477-3 0  9997
2 44738  53.0550  25.7168 0002176  42.2769 317.8387 15.06373830173409
1 44738U 19074AB  23002.36058760 -.00002346  00000-0 -13874-3 0  9992
2 44738  53.0554  24.5259 0002169  43.2915 316.8244 15.06376727173271
1 44738U 19074AB  23002.75867370 -.00000097  00000-0  12420-4 0  9997
2 44738  53.0558  22.7392 0002176  40.2870 319.8280 15.06380512173335
1 44738U 19074AB  23003.02406418  .00004239  00000-0  30340-3 0  9991
2 44738  53.0553  21.5471 0002214  41.3705 318.7452 15.06385402173542
1 44738U 19074AB  23003.28945399  .00007881  00000-0  54749-3 0  9990
2 44738  53.0546  20.3558 0002190  37.5768 322.5373 15.06390651173419
1 44738U 19074AB  23003.75388044  .00010971  00000-0  75413-3 0  9995
2 44738  53.0542  18.2706 0002238  39.9299 320.1854 15.06405796173655
1 44738U 19074AB  23004.28464659  .00014655  00000-0  99994-3 0  9994
2 44738  53.0539  15.8874 0002232  40.2140 319.9014 15.06427498173561
1 44738U 19074AB  23004.28464659  .00014655  00000-0  99994-3 0  9994
2 44738  53.0539  15.8874 0002232  40.2140 319.9014 15.06427498173730
1 44738U 19074AB  23004.74907101  .00012514  00000-0  85687-3 0  9995
2 44738  53.0540  13.8025 0002256  41.4603 318.6557 15.06427372173639
1 44738U 19074AB  23004.74907101  .00012514  00000-0  85687-3 0  9995
2 44738  53.0540  13.8025 0002256  41.4603 318.6557 15.06427372173808
1 44738U 19074AB  23005.41252828  .00006177  00000-0  43292-3 0  9993
2 44738  53.0553  10.8234 0002332  43.8678 316.2496 15.06427799173904
1 44738U 19074AB  23005.47887395  .00005075  00000-0  35911-3 0  9997
2 44738  53.0535  10.5244 0002228  42.9656 317.1507 15.06425952173746
1 44738U 19074AB  23005.74425856  .00002640  00000-0  19599-3 0  9996
2 44738  53.0542   9.3323 0002210  41.9302 318.1856 15.06421569173788
1 44738U 19074AB  23006.27503616 -.00005061  00000-0 -32113-3 0  9995
2 44738  53.0552   6.9519 0001969  22.6478 337.4598 15.06397951174032
1 44738U 19074AB  23006.47407676 -.00004209  00000-0 -26385-3 0  9993
2 44738  53.0568   6.0575 0001973  28.9982 331.1116 15.06397787173893
1 44738U 19074AB  23007.27024347  .00004052  00000-0  29078-3 0  9998
2 44738  53.0545   2.4846 0002301  41.4876 318.6287 15.06403362174018
1 44738U 19074AB  23007.40293915  .00009991  00000-0  68860-3 0  9991
2 44738  53.0543   1.8888 0002283  38.2897 321.8254 15.06404110174204
1 44738U 19074AB  23007.66833069  .00007410  00000-0  51590-3 0  9995
2 44738  53.0555   0.6964 0002503  40.1327 319.9847 15.06396200174075
1 44738U 19074AB  23007.66833069  .00007410  00000-0  51590-3 0  9995
2 44738  53.0555   0.6964 0002503  40.1327 319.9847 15.06396200174244
1 44738U 19074AB  23008.13276061  .00001803  00000-0  13994-3 0  9997
2 44738  53.0541 358.6132 0002193  36.1490 323.9647 15.06389690174319
1 44738U 19074AB  23008.46449334  .00003647  00000-0  26364-3 0  9991
2 44738  53.0547 357.1231 0002214  38.4182 321.6964 15.06397335174194
1 44738U 19074AB  23008.46449334  .00003647  00000-0  26364-3 0  9991
2 44738  53.0547 357.1231 0002214  38.4182 321.6964 15.06397335174363
1 44738U 19074AB  23009.45969471  .00002546  00000-0  18976-3 0  9997
2 44738  53.0546 352.6555 0002229  42.3825 317.7336 15.06402193174341
1 44738U 19074AB  23010.18950899  .00002626  00000-0  19510-3 0  9997
2 44738  53.0549 349.3788 0002221  42.9233 317.1929 15.06403902174628
1 44738U 19074AB  23010.45489974 -.00000057  00000-0  15121-4 0  9990
2 44738  53.0549 348.1876 0002392  42.1219 317.9953 15.06395679174499
1 44738U 19074AB  23010.45489974 -.00000057  00000-0  15121-4 0  9990
2 44738  53.0549 348.1876 0002392  42.1219 317.9953 15.06395679174668
1 44738U 19074AB  23010.65393782  .00000852  00000-0  76077-4 0  9992
2 44738  53.0549 347.2942 0002212  43.7777 316.3387 15.06400060174529
1 44738U 19074AB  23011.11835793  .00008068  00000-0  55960-3 0  9991
2 44738  53.0549 345.2094 0002161  43.3721 316.7438 15.06418985174765
1 44738U 19074AB  23011.18470353  .00011367  00000-0  78025-3 0  9998
2 44738  53.0546 344.9116 0002221  43.1753 316.9410 15.06425045174603
1 44738U 19074AB  23011.64913424  .00003384  00000-0  24592-3 0  9990
2 44738  53.0545 342.8274 0002154  48.5178 311.5996 15.06407235174846
1 44738U 19074AB  23011.91452909 -.00011295  00000-0 -74112-3 0  9991
2 44738  53.0551 341.6358 0001695  54.4197 305.6950 15.06373398174711
1 44738U 19074AB  23012.17991989 -.00005174  00000-0 -32886-3 0  9997
2 44738  53.0544 340.4452 0001757  57.4657 302.6502 15.06378286174922
1 44738U 19074AB  23012.31261339  .00000947  00000-0  82493-4 0  9993
2 44738  53.0543 339.8489 0001622  64.3023 295.8133 15.06385886174947
1 44738U 19074AB  23012.90974855  .00014269  00000-0  97533-3 0  9994
2 44738  53.0542 337.1680 0001932  62.7310 297.3875 15.06383906174867
1 44738U 19074AB  23012.90974855  .00014269  00000-0  97533-3 0  9994
2 44738  53.0542 337.1680 0001932  62.7310 297.3875 15.06383906175037
1 44738U 19074AB  23013.17513469  .00023953  00000-0  16212-2 0  9998
2 44738  53.0540 335.9769 0001879  64.0933 296.0249 15.06405948175071
1 44738U 19074AB  23013.57321585  .00018763  00000-0  12749-2 0  9992
2 44738  53.0542 334.1896 0001799  61.8903 298.2267 15.06407276174965
1 44738U 19074AB  23013.57321585  .00018763  00000-0  12749-2 0  9992
2 44738  53.0542 334.1896 0001799  61.8903 298.2267 15.06407276175135
1 44738U 19074AB  23013.90495171  .00016301  00000-0  11104-2 0  9992
2 44738  53.0538 332.7002 0002352  73.7081 286.4167 15.06408687175010
1 44738U 19074AB  23014.17033438  .00018590  00000-0  12629-2 0  9991
2 44738  53.0539 331.5096 0001919  77.7979 282.3225 15.06420710175223
1 44738U 19074AB  23014.83380456  .00003269  00000-0  23826-3 0  9998
2 44738  53.0537 328.5310 0002323  83.5995 276.5259 15.06402828175322
1 44738U 19074AB  23015.16554035 -.00002756  00000-0 -16623-3 0  9990
2 44738  53.0528 327.0439 0001764  86.4027 273.7163 15.06393654175378
1 44738U 19074AB  23015.29822504  .00003754  00000-0  27073-3 0  9991
2 44738  53.0537 326.4433 0001721  91.3561 268.7625 15.06411673175229
1 44738U 19074AB  23015.29822504  .00003754  00000-0  27073-3 0  9991
2 44738  53.0537 326.4433 0001721  91.3561 268.7625 15.06411673175397
1 44738U 19074AB  23016.09439088  .00002387  00000-0  17910-3 0  9991
2 44738  53.0551 322.8713 0001973  75.5437 284.5771 15.06406156175511
1 44738U 19074AB  23016.22707301  .00008427  00000-0  58355-3 0  9991
2 44738  53.0532 322.2755 0001719 114.0665 246.0504 15.06427279175538
1 44738U 19074AB  23016.55882537 -.00002819  00000-0 -17043-3 0  9992
2 44738  53.0525 320.7911 0002262  85.1270 274.9977 15.06387919175418
1 44738U 19074AB  23016.55882537 -.00002819  00000-0 -17043-3 0  9992
2 44738  53.0525 320.7911 0002262  85.1270 274.9977 15.06387919175586
1 44738U 19074AB  23017.55403845  .00000724  00000-0  67555-4 0  9999
2 44738  53.0536 316.3187 0001501  95.5198 264.5962 15.06383977175560
1 44738U 19074AB  23018.15115838  .00012673  00000-0  86795-3 0  9990
2 44738  53.0528 313.6375 0001522  96.7431 263.3731 15.06409290175823
1 44738U 19074AB  23018.54924305  .00013596  00000-0  92968-3 0  9994
2 44738  53.0531 311.8507 0001687  90.4072 269.7110 15.06408777175884
1 44738U 19074AB  23019.08000624  .00033129  00000-0  22301-2 0  9990
2 44738  53.0530 309.4665 0001413 103.9839 256.1307 15.06440299175961
1 44738U 19074AB  23019.21269579  .00033710  00000-0  22683-2 0  9990
2 44738  53.0530 308.8714 0001368  97.9123 262.2021 15.06447571175811
1 44738U 19074AB  23019.80982068 -.00000187  00000-0  63477-5 0  9992
2 44738  53.0534 306.1907 0001225 118.4495 241.6617 15.06393638176078
1 44738U 19074AB  23020.07521179  .00024901  00000-0  16848-2 0  9991
2 44738  53.0533 304.9997 0001493 120.8976 239.2160 15.06396908175944
1 44738U 19074AB  23020.07521179  .00024901  00000-0  16848-2 0  9991
2 44738  53.0533 304.9997 0001493 120.8976 239.2160 15.06396908176114
1 44738U 19074AB  23021.13676844  .00013360  00000-0  91397-3 0  9999
2 44738  53.0529 300.2350 0001464 122.9825 237.1305 15.06404241176270
1 44738U 19074AB  23022.46370468  .00007671  00000-0  53332-3 0  9994
2 44738  53.0527 294.2771 0002837  84.1497 275.9815 15.06400306176472
1 44738U 19074AB  23022.92813078  .00001983  00000-0  15200-3 0  9996
2 44738  53.0527 292.1922 0001084 106.2000 253.9108 15.06387298176549
1 44738U 19074AB  23023.72431366  .00004969  00000-0  35264-3 0  9990
2 44738  53.0530 288.6199 0001569  93.6298 266.4870 15.06354563176662
1 44738U 19074AB  23024.12239435  .00031499  00000-0  21245-2 0  9999
2 44738  53.0518 286.8319 0001270  97.6947 262.4186 15.06393066176720
1 44738U 19074AB  23024.98489013  .00025360  00000-0  17134-2 0  9994
2 44738  53.0521 282.9579 0000909 114.6075 245.5009 15.06440954176689
1 44738U 19074AB  23024.98489013  .00025360  00000-0  17134-2 0  9994
2 44738  53.0521 282.9579 0000909 114.6075 245.5009 15.06440954176858
1 44738U 19074AB  23026.11278105  .00002132  00000-0  16191-3 0  9994
2 44738  53.0519 277.8942 0001297 103.1395 256.9738 15.06413175176851
